start=new Date('2022-10-18T00:00:00.000Z').valueOf();
sats=[{"MEAN_ELEMENT_THEORY":"SGP4","RCS_SIZE":"LARGE","LAUNCH_DATE":"2022-09-19","PERIOD":"91.533","MEAN_MOTION":"15.73202369","APOAPSIS":"350.519","REF_FRAME":"TEME","OBJECT_ID":"2022-114AJ","MEAN_ANOMALY":"79.3834","TLE_LINE2":"2 53850  53.2141 115.8790 0001138  74.6227  79.3834 15.73202369  1307","GP_ID":"215451802","MEAN_MOTION_DDOT":"0.0000000000000","NORAD_CAT_ID":"53850","PERIAPSIS":"348.988","ARG_OF_PERICENTER":"74.6227","ECCENTRICITY":"0.00011380","INCLINATION":"53.2141","EPOCH":"2022-10-17T22:00:00.999936","ELEMENT_SET_NO":"999","COUNTRY_CODE":"US","TLE_LINE1":"1 53850U 22114AJ  22290.91667824 -.00008444  00000-0 -55805-4 0  9998","BSTAR":"-0.00005580500000","MEAN_MOTION_DOT":"-0.00008444","SITE":"AFETR","FILE":"3620294","EPHEMERIS_TYPE":"0","TIME_SYSTEM":"UTC","CENTER_NAME":"EARTH","DECAY_DATE":null,"SEMIMAJOR_AXIS":"6727.888","RA_OF_ASC_NODE":"115.8790","REV_AT_EPOCH":"130","OBJECT_NAME":"STARLINK-4767","CLASSIFICATION_TYPE":"U","OBJECT_TYPE":"PAYLOAD"},{"REF_FRAME":"TEME","OBJECT_ID":"2022-114AK","MEAN_ANOMALY":"61.7414","TLE_LINE2":"2 53851  53.2141 115.8844 0000974  89.8595  61.7414 15.73197015  1301","GP_ID":"215452134","MEAN_MOTION_DDOT":"0.0000000000000","NORAD_CAT_ID":"53851","PERIAPSIS":"349.113","MEAN_ELEMENT_THEORY":"SGP4","RCS_SIZE":"LARGE","LAUNCH_DATE":"2022-09-19","PERIOD":"91.533","MEAN_MOTION":"15.73197015","APOAPSIS":"350.424","REV_AT_EPOCH":"130","OBJECT_NAME":"STARLINK-4755","CLASSIFICATION_TYPE":"U","OBJECT_TYPE":"PAYLOAD","ARG_OF_PERICENTER":"89.8595","ECCENTRICITY":"0.00009740","EPOCH":"2022-10-17T22:00:00.999936","INCLINATION":"53.2141","ELEMENT_SET_NO":"999","COUNTRY_CODE":"US","TLE_LINE1":"1 53851U 22114AK  22290.91667824  .00021135  00000-0  15464-3 0  9995","BSTAR":"0.00015464000000","SITE":"AFETR","MEAN_MOTION_DOT":"0.00021135","FILE":"3620294","TIME_SYSTEM":"UTC","CENTER_NAME":"EARTH","EPHEMERIS_TYPE":"0","DECAY_DATE":null,"SEMIMAJOR_AXIS":"6727.904","RA_OF_ASC_NODE":"115.8844"},{"RCS_SIZE":"LARGE","MEAN_ELEMENT_THEORY":"SGP4","LAUNCH_DATE":"2022-09-19","PERIOD":"91.533","APOAPSIS":"350.437","MEAN_MOTION":"15.73206091","OBJECT_ID":"2022-114AL","REF_FRAME":"TEME","MEAN_ANOMALY":"72.2538","GP_ID":"215451968","TLE_LINE2":"2 53852  53.2147 115.8791 0001032  82.9584  72.2538 15.73206091  1306","MEAN_MOTION_DDOT":"0.0000000000000","NORAD_CAT_ID":"53852","PERIAPSIS":"349.048","ECCENTRICITY":"0.00010320","EPOCH":"2022-10-17T22:00:00.999936","INCLINATION":"53.2147","ELEMENT_SET_NO":"999","ARG_OF_PERICENTER":"82.9584","BSTAR":"-0.00000226590000","TLE_LINE1":"1 53852U 22114AL  22290.91667824 -.00000938  00000-0 -22659-5 0  9992","COUNTRY_CODE":"US","MEAN_MOTION_DOT":"-0.00000938","SITE":"AFETR","TIME_SYSTEM":"UTC","FILE":"3620294","CENTER_NAME":"EARTH","EPHEMERIS_TYPE":"0","DECAY_DATE":null,"RA_OF_ASC_NODE":"115.8791","SEMIMAJOR_AXIS":"6727.878","REV_AT_EPOCH":"130","OBJECT_NAME":"STARLINK-4797","CLASSIFICATION_TYPE":"U","OBJECT_TYPE":"PAYLOAD"},{"PERIOD":"91.531","APOAPSIS":"350.460","MEAN_MOTION":"15.73234721","RCS_SIZE":"LARGE","MEAN_ELEMENT_THEORY":"SGP4","LAUNCH_DATE":"2022-09-19","MEAN_MOTION_DDOT":"0.0000000000000","NORAD_CAT_ID":"53853","PERIAPSIS":"348.862","OBJECT_ID":"2022-114AM","REF_FRAME":"TEME","GP_ID":"215452531","TLE_LINE2":"2 53853  53.2154 115.8870 0001188  80.2301  72.5822 15.73234721  1303","MEAN_ANOMALY":"72.5822","TIME_SYSTEM":"UTC","FILE":"3620294","CENTER_NAME":"EARTH","EPHEMERIS_TYPE":"0","MEAN_MOTION_DOT":"-0.00033119","SITE":"AFETR","RA_OF_ASC_NODE":"115.8870","SEMIMAJOR_AXIS":"6727.796","DECAY_DATE":null,"ECCENTRICITY":"0.00011880","ELEMENT_SET_NO":"999","INCLINATION":"53.2154","EPOCH":"2022-10-17T22:00:00.999936","ARG_OF_PERICENTER":"80.2301","BSTAR":"-0.00023214000000","COUNTRY_CODE":"US","TLE_LINE1":"1 53853U 22114AM  22290.91667824 -.00033119  00000-0 -23214-3 0  9996","CLASSIFICATION_TYPE":"U","OBJECT_TYPE":"PAYLOAD","REV_AT_EPOCH":"130","OBJECT_NAME":"STARLINK-4794"},{"RA_OF_ASC_NODE":"115.8784","SEMIMAJOR_AXIS":"6727.882","DECAY_DATE":null,"FILE":"3620294","TIME_SYSTEM":"UTC","CENTER_NAME":"EARTH","EPHEMERIS_TYPE":"0","SITE":"AFETR","MEAN_MOTION_DOT":"-0.00006022","BSTAR":"-0.00003851400000","TLE_LINE1":"1 53854U 22114AN  22290.91667824 -.00006022  00000-0 -38514-4 0  9990","COUNTRY_CODE":"US","ECCENTRICITY":"0.00011330","EPOCH":"2022-10-17T22:00:00.999936","ELEMENT_SET_NO":"999","INCLINATION":"53.2150","ARG_OF_PERICENTER":"90.2347","OBJECT_TYPE":"PAYLOAD","CLASSIFICATION_TYPE":"U","OBJECT_NAME":"STARLINK-4800","REV_AT_EPOCH":"130","APOAPSIS":"350.510","MEAN_MOTION":"15.73204524","PERIOD":"91.533","LAUNCH_DATE":"2022-09-19","RCS_SIZE":"LARGE","MEAN_ELEMENT_THEORY":"SGP4","PERIAPSIS":"348.985","NORAD_CAT_ID":"53854","MEAN_MOTION_DDOT":"0.0000000000000","GP_ID":"215451384","TLE_LINE2":"2 53854  53.2150 115.8784 0001133  90.2347  66.1700 15.73204524  1307","MEAN_ANOMALY":"66.1700","OBJECT_ID":"2022-114AN","REF_FRAME":"TEME"},{"DECAY_DATE":null,"RA_OF_ASC_NODE":"115.4672","SEMIMAJOR_AXIS":"6727.892","MEAN_MOTION_DOT":"-0.00008862","SITE":"AFETR","TIME_SYSTEM":"UTC","FILE":"3620168","EPHEMERIS_TYPE":"0","CENTER_NAME":"EARTH","BSTAR":"-0.00005879500000","TLE_LINE1":"1 53855U 22114AP  22291.00001157 -.00008862  00000-0 -58795-4 0  9990","COUNTRY_CODE":"US","ECCENTRICITY":"0.00008690","INCLINATION":"53.2154","EPOCH":"2022-10-18T00:00:00.999648","ELEMENT_SET_NO":"999","ARG_OF_PERICENTER":"77.1154","OBJECT_TYPE":"PAYLOAD","CLASSIFICATION_TYPE":"U","OBJECT_NAME":"STARLINK-4703","REV_AT_EPOCH":"513","APOAPSIS":"350.342","MEAN_MOTION":"15.73201037","PERIOD":"91.533","LAUNCH_DATE":"2022-09-19","RCS_SIZE":"LARGE","MEAN_ELEMENT_THEORY":"SGP4","PERIAPSIS":"349.173","MEAN_MOTION_DDOT":"0.0000000000000","NORAD_CAT_ID":"53855","MEAN_ANOMALY":"188.5299","GP_ID":"215425082","TLE_LINE2":"2 53855  53.2154 115.4672 0000869  77.1154 188.5299 15.73201037  5132","OBJECT_ID":"2022-114AP","REF_FRAME":"TEME"},{"ARG_OF_PERICENTER":"85.4065","ECCENTRICITY":"0.00009090","EPOCH":"2022-10-17T22:00:00.999936","ELEMENT_SET_NO":"999","INCLINATION":"53.2159","COUNTRY_CODE":"US","TLE_LINE1":"1 53856U 22114AQ  22290.91667824 -.00055426  00000-0 -39246-3 0  9996","BSTAR":"-0.00039246000000","MEAN_MOTION_DOT":"-0.00055426","SITE":"AFETR","FILE":"3620294","TIME_SYSTEM":"UTC","EPHEMERIS_TYPE":"0","CENTER_NAME":"EARTH","DECAY_DATE":null,"SEMIMAJOR_AXIS":"6727.785","RA_OF_ASC_NODE":"115.8679","REV_AT_EPOCH":"130","OBJECT_NAME":"STARLINK-4795","CLASSIFICATION_TYPE":"U","OBJECT_TYPE":"PAYLOAD","MEAN_ELEMENT_THEORY":"SGP4","RCS_SIZE":"LARGE","LAUNCH_DATE":"2022-09-19","PERIOD":"91.531","MEAN_MOTION":"15.73238645","APOAPSIS":"350.262","REF_FRAME":"TEME","OBJECT_ID":"2022-114AQ","MEAN_ANOMALY":"73.9471","TLE_LINE2":"2 53856  53.2159 115.8679 0000909  85.4065  73.9471 15.73238645  1306","GP_ID":"215451550","MEAN_MOTION_DDOT":"0.0000000000000","NORAD_CAT_ID":"53856","PERIAPSIS":"349.038"},{"NORAD_CAT_ID":"53857","MEAN_MOTION_DDOT":"0.0000000000000","PERIAPSIS":"348.981","OBJECT_ID":"2022-114AR","REF_FRAME":"TEME","MEAN_ANOMALY":"62.0799","GP_ID":"215452287","TLE_LINE2":"2 53857  53.2142 115.8777 0001188  92.5058  62.0799 15.73193052  1303","PERIOD":"91.534","APOAPSIS":"350.579","MEAN_MOTION":"15.73193052","RCS_SIZE":"LARGE","MEAN_ELEMENT_THEORY":"SGP4","LAUNCH_DATE":"2022-09-19","CLASSIFICATION_TYPE":"U","OBJECT_TYPE":"PAYLOAD","REV_AT_EPOCH":"130","OBJECT_NAME":"STARLINK-4809","SITE":"AFETR","MEAN_MOTION_DOT":"0.00015491","FILE":"3620294","CENTER_NAME":"EARTH","EPHEMERIS_TYPE":"0","TIME_SYSTEM":"UTC","DECAY_DATE":null,"RA_OF_ASC_NODE":"115.8777","SEMIMAJOR_AXIS":"6727.915","INCLINATION":"53.2142","ECCENTRICITY":"0.00011880","EPOCH":"2022-10-17T22:00:00.999936","ELEMENT_SET_NO":"999","ARG_OF_PERICENTER":"92.5058","BSTAR":"0.00011462000000","COUNTRY_CODE":"US","TLE_LINE1":"1 53857U 22114AR  22290.91667824  .00015491  00000-0  11462-3 0  9993"},{"NORAD_CAT_ID":"53858","MEAN_MOTION_DDOT":"0.0000000000000","PERIAPSIS":"348.908","REF_FRAME":"TEME","OBJECT_ID":"2022-114AS","MEAN_ANOMALY":"72.0232","TLE_LINE2":"2 53858  53.2149 115.8757 0001128  84.9124  72.0232 15.73232836  1309","GP_ID":"215451803","PERIOD":"91.531","MEAN_MOTION":"15.73232836","APOAPSIS":"350.425","MEAN_ELEMENT_THEORY":"SGP4","RCS_SIZE":"LARGE","LAUNCH_DATE":"2022-09-19","CLASSIFICATION_TYPE":"U","OBJECT_TYPE":"PAYLOAD","REV_AT_EPOCH":"130","OBJECT_NAME":"STARLINK-4798","MEAN_MOTION_DOT":"-0.00034300","SITE":"AFETR","CENTER_NAME":"EARTH","FILE":"3620294","EPHEMERIS_TYPE":"0","TIME_SYSTEM":"UTC","DECAY_DATE":null,"SEMIMAJOR_AXIS":"6727.802","RA_OF_ASC_NODE":"115.8757","ARG_OF_PERICENTER":"84.9124","EPOCH":"2022-10-17T22:00:00.999936","ECCENTRICITY":"0.00011280","INCLINATION":"53.2149","ELEMENT_SET_NO":"999","TLE_LINE1":"1 53858U 22114AS  22290.91667824 -.00034300  00000-0 -24063-3 0  9997","COUNTRY_CODE":"US","BSTAR":"-0.00024063000000"},{"CLASSIFICATION_TYPE":"U","OBJECT_TYPE":"PAYLOAD","REV_AT_EPOCH":"130","OBJECT_NAME":"STARLINK-4790","EPHEMERIS_TYPE":"0","FILE":"3620294","TIME_SYSTEM":"UTC","CENTER_NAME":"EARTH","MEAN_MOTION_DOT":"-0.00001117","SITE":"AFETR","SEMIMAJOR_AXIS":"6727.886","RA_OF_ASC_NODE":"115.8744","DECAY_DATE":null,"ARG_OF_PERICENTER":"79.8839","EPOCH":"2022-10-17T22:00:00.999936","INCLINATION":"53.2141","ELEMENT_SET_NO":"999","ECCENTRICITY":"0.00009120","TLE_LINE1":"1 53859U 22114AT  22290.91667824 -.00001117  00000-0 -35438-5 0  9998","COUNTRY_CODE":"US","BSTAR":"-0.00000354380000","MEAN_MOTION_DDOT":"0.0000000000000","NORAD_CAT_ID":"53859","PERIAPSIS":"349.138","REF_FRAME":"TEME","OBJECT_ID":"2022-114AT","TLE_LINE2":"2 53859  53.2141 115.8744 0000912  79.8839  75.8986 15.73203091  1302","GP_ID":"215452135","MEAN_ANOMALY":"75.8986","PERIOD":"91.533","MEAN_MOTION":"15.73203091","APOAPSIS":"350.365","MEAN_ELEMENT_THEORY":"SGP4","RCS_SIZE":"LARGE","LAUNCH_DATE":"2022-09-19"}];
